{
  "type": "FeatureCollection",
  "name": "cnot_quantum_reactor_story_points",
  "features": [
    {
      "type": "Feature",
      "properties": {
        "id": "inkai",
        "name": "JV Inkai LLP",
        "story": "C-Not Quantum Reactor",
        "chapter": "Kazakhstan",
        "location": "Inkai operation, Suzak District",
        "country": "Kazakhstan",
        "related_layer": "01_uranium_extraction",
        "description": "Prima tappa dell'indagine: sito di estrazione dell'uranio associato al primo autore fittizio del paper.",
        "coordinate_precision": "approximate site"
      },
      "geometry": {
        "type": "Point",
        "coordinates": [
          67.4833,
          45.4333
        ]
      }
    },
    {
      "type": "Feature",
      "properties": {
        "id": "tricastin",
        "name": "Philippe Coste / Orano Tricastin",
        "story": "C-Not Quantum Reactor",
        "chapter": "Tricastin",
        "location": "Tricastin nuclear site",
        "country": "France",
        "related_layer": "02_uranium_conversion",
        "description": "Seconda tappa: conversione UF4→UF6 presso il sito di Tricastin.",
        "coordinate_precision": "site centroid"
      },
      "geometry": {
        "type": "Point",
        "coordinates": [
          4.72249,
          44.3357
        ]
      }
    },
    {
      "type": "Feature",
      "properties": {
        "id": "almelo",
        "name": "URENCO Nederland",
        "story": "C-Not Quantum Reactor",
        "chapter": "Almelo",
        "location": "Drienemansweg 1, Almelo",
        "country": "Netherlands",
        "related_layer": "03_uranium_enrichment",
        "description": "Terza tappa: impianto di arricchimento dell'uranio di URENCO Nederland.",
        "coordinate_precision": "approximate address"
      },
      "geometry": {
        "type": "Point",
        "coordinates": [
          6.7006,
          52.321
        ]
      }
    },
    {
      "type": "Feature",
      "properties": {
        "id": "vasteras",
        "name": "Westinghouse Fuel Fabrication, Västerås",
        "story": "C-Not Quantum Reactor",
        "chapter": "Västerås",
        "location": "Bränslegatan 1, Västerås",
        "country": "Sweden",
        "related_layer": "04_fuel_fabrication",
        "description": "Quarta tappa: fabbricazione del combustibile e prove sul processo di sinterizzazione.",
        "coordinate_precision": "approximate address"
      },
      "geometry": {
        "type": "Point",
        "coordinates": [
          16.6237,
          59.6503
        ]
      }
    },
    {
      "type": "Feature",
      "properties": {
        "id": "psi",
        "name": "Paul Scherrer Institute",
        "story": "C-Not Quantum Reactor",
        "chapter": "Villigen",
        "location": "Forschungsstrasse 111, 5232 Villigen PSI",
        "country": "Switzerland",
        "related_layer": "08_nuclear_research",
        "description": "Quinta tappa: il PSI, dove l'affiliazione dell'ultimo autore conduce all'intuizione decisiva.",
        "coordinate_precision": "campus"
      },
      "geometry": {
        "type": "Point",
        "coordinates": [
          8.22327,
          47.53916
        ]
      }
    },
    {
      "type": "Feature",
      "properties": {
        "id": "cern",
        "name": "CERN",
        "story": "C-Not Quantum Reactor",
        "chapter": "CERN",
        "location": "1 Esplanade des Particules, Meyrin",
        "country": "Switzerland",
        "related_layer": "story_only",
        "description": "Tappa finale dell'indagine: verifica locale del record apparentemente pubblicato dal CERN.",
        "coordinate_precision": "reception GPS"
      },
      "geometry": {
        "type": "Point",
        "coordinates": [
          6.055692,
          46.233058
        ]
      }
    }
  ]
}