{
  "type": "FeatureCollection",
  "features": [
    {
      "type": "Feature",
      "id": "conv_malvesi",
      "properties": {
        "id": "conv_malvesi",
        "name": "Orano Malvési",
        "country": "France",
        "category": "uranium_conversion",
        "subtype": "yellowcake_to_UF4",
        "status": "operational",
        "operator": "Orano",
        "function": "Purificazione dei concentrati di uranio e conversione in tetrafluoruro di uranio (UF4).",
        "description": "Prima fase della conversione francese: il concentrato proveniente dalle miniere viene purificato e trasformato in UF4.",
        "source_label": "Orano Malvési",
        "source_url": "https://www.orano.group/en/nuclear-expertise/orano-s-sites-around-the-world/uranium-transformation/malvesi/industrial-renewal",
        "coordinate_precision": "site"
      },
      "geometry": {
        "type": "Point",
        "coordinates": [
          2.98335,
          43.21211
        ]
      }
    },
    {
      "type": "Feature",
      "id": "conv_tricastin",
      "properties": {
        "id": "conv_tricastin",
        "name": "Orano Tricastin – conversione UF4→UF6",
        "country": "France",
        "category": "uranium_conversion",
        "subtype": "UF4_to_UF6",
        "status": "operational",
        "operator": "Orano",
        "function": "Seconda fase della conversione: trasformazione dell'UF4 in esafluoruro di uranio (UF6).",
        "description": "L'UF6 è la forma chimica utilizzata dagli impianti di arricchimento a centrifuga.",
        "source_label": "Orano conversion and enrichment overview",
        "source_url": "https://www.orano.group/en/nuclear-expertise/from-exploration-to-recycling/international-expert-in-uranium-processing",
        "coordinate_precision": "site_complex"
      },
      "geometry": {
        "type": "Point",
        "coordinates": [
          4.7211,
          44.3292
        ]
      }
    }
  ]
}