{
  "type": "FeatureCollection",
  "features": [
    {
      "type": "Feature",
      "id": "npp_beznau",
      "properties": {
        "id": "npp_beznau",
        "name": "Beznau Nuclear Power Plant",
        "country": "Switzerland",
        "category": "nuclear_power",
        "subtype": "PWR",
        "status": "operational",
        "operator": "Axpo",
        "function": "Produzione elettrica mediante due reattori ad acqua pressurizzata.",
        "description": "Nel GIS rappresenta la fase in cui il combustibile viene utilizzato nel nocciolo per produrre calore ed elettricità.",
        "source_label": "ENSI Swiss nuclear installations report",
        "source_url": "https://www.ensi.ch/en/wp-content/uploads/sites/5/2023/11/Swiss_National_Assessment_Report_for_the_Topical_Peer_Review_2023.pdf",
        "coordinate_precision": "site"
      },
      "geometry": {
        "type": "Point",
        "coordinates": [
          8.227806,
          47.552194
        ]
      }
    },
    {
      "type": "Feature",
      "id": "npp_goesgen",
      "properties": {
        "id": "npp_goesgen",
        "name": "Gösgen Nuclear Power Plant",
        "country": "Switzerland",
        "category": "nuclear_power",
        "subtype": "PWR",
        "status": "operational",
        "operator": "Kernkraftwerk Gösgen-Däniken AG",
        "function": "Produzione elettrica mediante reattore ad acqua pressurizzata.",
        "description": "Centrale svizzera PWR; il sito comprende anche gestione e stoccaggio temporaneo dei materiali radioattivi di esercizio.",
        "source_label": "ENSI Swiss nuclear installations report",
        "source_url": "https://www.ensi.ch/en/wp-content/uploads/sites/5/2023/11/Swiss_National_Assessment_Report_for_the_Topical_Peer_Review_2023.pdf",
        "coordinate_precision": "site"
      },
      "geometry": {
        "type": "Point",
        "coordinates": [
          7.96801,
          47.3656
        ]
      }
    },
    {
      "type": "Feature",
      "id": "npp_leibstadt",
      "properties": {
        "id": "npp_leibstadt",
        "name": "Leibstadt Nuclear Power Plant",
        "country": "Switzerland",
        "category": "nuclear_power",
        "subtype": "BWR",
        "status": "operational",
        "operator": "Kernkraftwerk Leibstadt AG",
        "function": "Produzione elettrica mediante reattore ad acqua bollente.",
        "description": "Nel ciclo del combustibile rappresenta la fase di irraggiamento: la fissione produce energia e trasforma il combustibile fresco in combustibile esaurito.",
        "source_label": "ENSI Swiss nuclear installations report",
        "source_url": "https://www.ensi.ch/en/wp-content/uploads/sites/5/2023/11/Swiss_National_Assessment_Report_for_the_Topical_Peer_Review_2023.pdf",
        "coordinate_precision": "site"
      },
      "geometry": {
        "type": "Point",
        "coordinates": [
          8.1845,
          47.6012
        ]
      }
    },
    {
      "type": "Feature",
      "id": "npp_muhleberg",
      "properties": {
        "id": "npp_muhleberg",
        "name": "Mühleberg Nuclear Power Plant",
        "country": "Switzerland",
        "category": "nuclear_power",
        "subtype": "BWR",
        "status": "decommissioning / dismantling",
        "operator": "BKW Energie",
        "function": "Ex centrale nucleare BWR, oggi in fase di smantellamento.",
        "description": "Mostra che il ciclo di vita prosegue dopo la produzione: decontaminazione, smantellamento e gestione dei rifiuti di decommissioning.",
        "source_label": "ENSI Swiss nuclear installations report",
        "source_url": "https://www.ensi.ch/en/wp-content/uploads/sites/5/2023/11/Swiss_National_Assessment_Report_for_the_Topical_Peer_Review_2023.pdf",
        "coordinate_precision": "site"
      },
      "geometry": {
        "type": "Point",
        "coordinates": [
          7.27031,
          46.97081
        ]
      }
    }
  ]
}