{
  "type": "FeatureCollection",
  "name": "02_robotics_components",
  "features": [
    {
      "type": "Feature",
      "properties": {
        "id": "sick_waldkirch",
        "name": "SICK AG — Waldkirch",
        "country": "Germany",
        "city": "Waldkirch",
        "stage": "components",
        "category": "robotics_sensors",
        "organisation": "SICK AG",
        "function": "Sensor and safety solutions for robotics and industrial automation",
        "description": "SICK develops sensor-based automation and robotics solutions, including technologies used for robot perception, localization and safety.",
        "address": "Erwin-Sick-Straße 1, 79183 Waldkirch, Germany",
        "source_label": "SICK — Robotics and sensor solutions",
        "source_url": "https://www.sick.com/de/en/",
        "coordinate_precision": "address-level"
      },
      "geometry": {
        "type": "Point",
        "coordinates": [
          7.91463,
          48.080849
        ]
      }
    }
  ]
}